NORAD_CAT_ID,OBJECT_NAME,OBJECT_TYPE,EPOCH,MEAN_MOTION,ECCENTRICITY,INCLINATION,RA_OF_ASC_NODE,ARG_OF_PERICENTER,MEAN_ANOMALY,BSTAR,MEAN_MOTION_DOT,MEAN_MOTION_DDOT,TLE_LINE0,TLE_LINE1,TLE_LINE2,SEMIMAJOR_AXIS,PERIOD,APOGEE,PERIGEE,DECAYED
50851.0,STARLINK-3314,PAYLOAD,2024-08-03 04:53:50,15.08833647,0.0001313,53.2157,278.4148,85.7697,274.3445,-2.8872e-05,-7.47e-06,0.0,0 STARLINK-3314,1 50851U 22001BA  24216.20405108 -.00000747  00000-0 -28872-4 0  9990,2 50851  53.2157 278.4148 0001313  85.7697 274.3445 15.08833647143460,6917.9,95.438,540.673,538.856,0.0
50851.0,STARLINK-3314,PAYLOAD,2024-08-03 11:15:22,15.08837279,0.0001369,53.2169,277.2266,90.3019,269.813,5.0846e-05,5.21e-06,0.0,0 STARLINK-3314,1 50851U 22001BA  24216.46900738  .00000521  00000-0  50846-4 0  9991,2 50851  53.2169 277.2266 0001369  90.3019 269.8130 15.08837279142220,6917.889,95.438,540.701,538.807,0.0
50851.0,STARLINK-3314,PAYLOAD,2024-08-03 20:47:41,15.08840349,0.0001356,53.2168,275.4421,88.0961,272.0186,1.3561e-05,-7.2e-07,0.0,0 STARLINK-3314,1 50851U 22001BA  24216.86644738 -.00000072  00000-0  13561-4 0  9995,2 50851  53.2168 275.4421 0001356  88.0961 272.0186 15.08840349143565,6917.879,95.438,540.682,538.806,0.0
50851.0,STARLINK-3314,PAYLOAD,2024-08-04 14:16:54,15.08852968,0.0001385,53.2172,272.171,88.895,271.2201,0.00021734,3.174e-05,0.0,0 STARLINK-3314,1 50851U 22001BA  24217.59507778  .00003174  00000-0  21734-3 0  9993,2 50851  53.2172 272.1710 0001385  88.8950 271.2201 15.08852968142392,6917.841,95.437,540.664,538.748,0.0
50851.0,STARLINK-3314,PAYLOAD,2024-08-04 20:38:27,15.08847011,0.0001134,53.2138,270.9779,77.8841,282.2278,0.00018064,2.589e-05,0.0,0 STARLINK-3314,1 50851U 22001BA  24217.86004218  .00002589  00000-0  18064-3 0  9995,2 50851  53.2138 270.9779 0001134  77.8841 282.2278 15.08847011142438,6917.859,95.437,540.508,538.939,0.0
50851.0,STARLINK-3314,PAYLOAD,2024-08-06 07:36:58,15.08834236,0.0002778,53.2177,264.4354,86.8671,273.2639,-1.2951e-05,-4.95e-06,0.0,0 STARLINK-3314,1 50851U 22001BA  24219.31733900 -.00000495  00000-0 -12951-4 0  9990,2 50851  53.2177 264.4354 0002778  86.8671 273.2639 15.08834236143936,6917.898,95.438,541.685,537.841,0.0
50851.0,STARLINK-3314,PAYLOAD,2024-08-07 12:13:53,15.08849331,0.0001537,53.2151,259.0853,108.19,251.926,0.00021175,3.084e-05,0.0,0 STARLINK-3314,1 50851U 22001BA  24220.50964961  .00003084  00000-0  21175-3 0  9998,2 50851  53.2151 259.0853 0001537 108.1900 251.9260 15.08849331144113,6917.852,95.437,540.78,538.654,0.0
50851.0,STARLINK-3314,PAYLOAD,2024-08-08 08:53:54,15.08846691,0.0001538,53.215,255.219,99.878,260.2386,0.00036877,5.587e-05,0.0,0 STARLINK-3314,1 50851U 22001BA  24221.37077506  .00005587  00000-0  36877-3 0  9999,2 50851  53.2150 255.2190 0001538  99.8780 260.2386 15.08846691142966,6917.86,95.437,540.789,538.661,0.0
50851.0,STARLINK-3314,PAYLOAD,2024-08-09 08:44:41,15.08849852,0.0001499,53.2158,250.7578,92.0889,268.0275,0.00011826,1.595e-05,0.0,0 STARLINK-3314,1 50851U 22001BA  24222.36437099  .00001595  00000-0  11826-3 0  9998,2 50851  53.2158 250.7578 0001499  92.0889 268.0275 15.08849852144399,6917.85,95.437,540.752,538.678,0.0
50851.0,STARLINK-3314,PAYLOAD,2024-08-10 11:46:14,15.08849524,0.0001354,53.2142,245.7034,95.7772,264.3375,8.0467e-05,9.93e-06,0.0,0 STARLINK-3314,1 50851U 22001BA  24223.49044678  .00000993  00000-0  80467-4 0  9999,2 50851  53.2142 245.7034 0001354  95.7772 264.3375 15.08849524144569,6917.851,95.437,540.653,538.78,0.0
50851.0,STARLINK-3314,PAYLOAD,2024-08-11 02:04:43,15.08841421,0.0001627,53.2153,243.0241,99.4501,260.6675,-1.1928e-05,-4.78e-06,0.0,0 STARLINK-3314,1 50851U 22001BA  24224.08661246 -.00000478  00000-0 -11928-4 0  9997,2 50851  53.2153 243.0241 0001627  99.4501 260.6675 15.08841421144656,6917.876,95.437,540.867,538.616,0.0
50851.0,STARLINK-3314,PAYLOAD,2024-08-11 17:58:34,15.08836574,0.0001358,53.2153,240.0546,89.4019,270.7129,3.0077e-05,1.91e-06,0.0,0 STARLINK-3314,1 50851U 22001BA  24224.74901616  .00000191  00000-0  30077-4 0  9994,2 50851  53.2153 240.0546 0001358  89.4019 270.7129 15.08836574143473,6917.891,95.438,540.695,538.816,0.0
50851.0,STARLINK-3314,PAYLOAD,2024-08-12 05:06:17,15.08835321,0.0001287,53.2149,237.9721,90.2538,269.8602,2.2614e-06,-2.52e-06,0.0,0 STARLINK-3314,1 50851U 22001BA  24225.21269750 -.00000252  00000-0  22614-5 0  9991,2 50851  53.2149 237.9721 0001287  90.2538 269.8602 15.08835321144829,6917.895,95.438,540.65,538.869,0.0
50851.0,STARLINK-3314,PAYLOAD,2024-08-12 08:17:03,15.08839647,0.0001468,53.2155,237.3767,98.2036,261.9122,3.352e-05,2.46e-06,0.0,0 STARLINK-3314,1 50851U 22001BA  24225.34517522  .00000246  00000-0  33520-4 0  9997,2 50851  53.2155 237.3767 0001468  98.2036 261.9122 15.08839647143567,6917.881,95.438,540.762,538.731,0.0
50851.0,STARLINK-3314,PAYLOAD,2024-08-12 17:49:21,15.08855857,0.0001292,53.2154,235.5935,92.8484,267.2656,0.00011793,1.59e-05,0.0,0 STARLINK-3314,1 50851U 22001BA  24225.74260661  .00001590  00000-0  11793-3 0  9990,2 50851  53.2154 235.5935 0001292  92.8484 267.2656 15.08855857144906,6917.832,95.437,540.591,538.803,0.0
50851.0,STARLINK-3314,PAYLOAD,2024-08-13 04:57:03,15.08844711,0.000155,53.2163,233.5117,88.1696,271.9473,0.0001532,2.151e-05,0.0,0 STARLINK-3314,1 50851U 22001BA  24226.20629267  .00002151  00000-0  15320-3 0  9997,2 50851  53.2163 233.5117 0001550  88.1696 271.9473 15.08844711144979,6917.866,95.437,540.803,538.659,0.0
50851.0,STARLINK-3314,PAYLOAD,2024-08-13 09:43:12,15.08847707,0.0001458,53.2158,232.6192,85.4203,274.6955,0.00019528,2.822e-05,0.0,0 STARLINK-3314,1 50851U 22001BA  24226.40501078  .00002822  00000-0  19528-3 0  9997,2 50851  53.2158 232.6192 0001458  85.4203 274.6955 15.08847707143722,6917.857,95.437,540.73,538.713,0.0
50851.0,STARLINK-3314,PAYLOAD,2024-08-13 17:40:08,15.0884027,0.0001322,53.2152,231.1342,89.2323,270.8821,6.2858e-05,7.13e-06,0.0,0 STARLINK-3314,1 50851U 22001BA  24226.73621336  .00000713  00000-0  62858-4 0  9995,2 50851  53.2152 231.1342 0001322  89.2323 270.8821 15.08840270143775,6917.88,95.438,540.659,538.83,0.0
50851.0,STARLINK-3314,PAYLOAD,2024-08-14 06:23:14,15.08829248,0.0001497,53.2148,228.7526,92.8109,267.3054,-0.00010128,-1.899e-05,0.0,0 STARLINK-3314,1 50851U 22001BA  24227.26614128 -.00001899  00000-0 -10128-3 0  9995,2 50851  53.2148 228.7526 0001497  92.8109 267.3054 15.08829248145134,6917.913,95.438,540.814,538.743,0.0
50851.0,STARLINK-3314,PAYLOAD,2024-08-14 17:30:56,15.08831692,0.0001602,53.2158,226.6703,93.1621,266.9555,-3.2762e-05,-8.09e-06,0.0,0 STARLINK-3314,1 50851U 22001BA  24227.72982333 -.00000809  00000-0 -32762-4 0  9991,2 50851  53.2158 226.6703 0001602  93.1621 266.9555 15.08831692143922,6917.906,95.438,540.879,538.663,0.0
50851.0,STARLINK-3314,PAYLOAD,2024-08-15 06:14:01,15.08842059,0.0001496,53.2153,224.2917,91.2134,268.903,0.00017419,2.485e-05,0.0,0 STARLINK-3314,1 50851U 22001BA  24228.25974146  .00002485  00000-0  17419-3 0  9994,2 50851  53.2153 224.2917 0001496  91.2134 268.9030 15.08842059145287,6917.874,95.437,540.774,538.704,0.0
50851.0,STARLINK-3314,PAYLOAD,2024-08-15 17:21:43,15.08844187,0.0001521,53.2149,222.2106,92.0728,268.0438,0.00029644,4.434e-05,0.0,0 STARLINK-3314,1 50851U 22001BA  24228.72342234  .00004434  00000-0  29644-3 0  9992,2 50851  53.2149 222.2106 0001521  92.0728 268.0438 15.08844187144070,6917.868,95.437,540.785,538.68,0.0
50851.0,STARLINK-3314,PAYLOAD,2024-08-16 06:04:48,15.08851506,0.0001575,53.2149,219.8317,92.2435,267.8737,0.00045096,6.899e-05,0.0,0 STARLINK-3314,1 50851U 22001BA  24229.25334097  .00006899  00000-0  45096-3 0  9995,2 50851  53.2149 219.8317 0001575  92.2435 267.8737 15.08851506144153,6917.845,95.437,540.8,538.621,0.0
50851.0,STARLINK-3314,PAYLOAD,2024-08-17 04:20:12,15.08841449,0.0001593,53.2154,215.6682,93.7732,266.3442,4.9638e-05,5.02e-06,0.0,0 STARLINK-3314,1 50851U 22001BA  24230.18070232  .00000502  00000-0  49638-4 0  9999,2 50851  53.2154 215.6682 0001593  93.7732 266.3442 15.08841449145573,6917.876,95.437,540.843,538.639,0.0
50851.0,STARLINK-3314,PAYLOAD,2024-08-18 05:46:22,15.0884421,0.0001529,53.2153,210.9101,96.7175,263.3991,5.4566e-05,5.81e-06,0.0,0 STARLINK-3314,1 50851U 22001BA  24231.24053958  .00000581  00000-0  54566-4 0  9996,2 50851  53.2153 210.9101 0001529  96.7175 263.3991 15.08844210145732,6917.868,95.437,540.79,538.675,0.0
50851.0,STARLINK-3314,PAYLOAD,2024-08-19 05:37:10,15.08833965,0.0001485,53.2171,206.4526,96.8819,263.2342,5.6838e-05,6.17e-06,0.0,0 STARLINK-3314,1 50851U 22001BA  24232.23414866  .00000617  00000-0  56838-4 0  9999,2 50851  53.2171 206.4526 0001485  96.8819 263.2342 15.08833965145880,6917.899,95.438,540.791,538.737,0.0
50851.0,STARLINK-3314,PAYLOAD,2024-08-19 08:47:56,15.08836394,0.000141,53.2167,205.8567,91.2364,268.879,6.3696e-05,7.26e-06,0.0,0 STARLINK-3314,1 50851U 22001BA  24232.36662724  .00000726  00000-0  63696-4 0  9992,2 50851  53.2167 205.8567 0001410  91.2364 268.8790 15.08836394144623,6917.891,95.438,540.732,538.781,0.0
50851.0,STARLINK-3314,PAYLOAD,2024-08-20 05:27:58,15.08788931,0.0001766,53.2167,201.9911,101.3513,258.7678,0.00084832,0.0001322,0.0,0 STARLINK-3314,1 50851U 22001BA  24233.22775833  .00013220  00000-0  84832-3 0  9991,2 50851  53.2167 201.9911 0001766 101.3513 258.7678 15.08788931146039,6918.036,95.441,541.123,538.68,0.0
50851.0,STARLINK-3314,PAYLOAD,2024-08-21 05:18:43,15.08845681,0.0001466,53.2167,197.5307,92.6343,267.4817,0.00015547,2.188e-05,0.0,0 STARLINK-3314,1 50851U 22001BA  24234.22134250  .00002188  00000-0  15547-3 0  9992,2 50851  53.2167 197.5307 0001466  92.6343 267.4817 15.08845681146182,6917.863,95.437,540.742,538.714,0.0
50851.0,STARLINK-3314,PAYLOAD,2024-08-21 21:12:35,15.08840049,0.0001669,53.2149,194.5608,79.2599,280.858,8.1397e-05,1.008e-05,0.0,0 STARLINK-3314,1 50851U 22001BA  24234.88374919  .00001008  00000-0  81397-4 0  9999,2 50851  53.2149 194.5608 0001669  79.2599 280.8580 15.08840049146282,6917.88,95.438,540.9,538.591,0.0
